{"type": "FeatureCollection", "features": [{"type": "Feature", "properties": {"name": "Baden-W\u00fcrttemberg", "code": "BW"}, "geometry": {"type": "MultiPolygon", "coordinates": [[[[9.650460243225211, 49.7763404846192], [9.650967597961369, 49.76515197753929], [9.656839370727539, 49.761451721191406], [9.640399932861612, 49.75014114379883], [9.652028083801326, 49.742759704589844], [9.652208328247184, 49.73902893066429], [9.646539688110352, 49.738990783691406], [9.64671993255621, 49.73526000976574], [9.652379035949934, 49.735301971435774], [9.652549743652287, 49.73157119750988], [9.646888732910156, 49.731529235839844], [9.64107894897461, 49.735221862793196], [9.64140987396246, 49.727748870849894], [9.630180358886776, 49.727668762206974], [9.635949134826944, 49.72399139404308], [9.641580581665039, 49.72402954101591], [9.647407531738224, 49.720340728759766], [9.647579193115462, 49.71660995483421], [9.641920089721907, 49.71657180786133], [9.642100334167765, 49.71284103393566], [9.636459350585994, 49.71279907226557], [9.631500244140682, 49.69784164428711], [9.637128829956055, 49.697879791259766], [9.637469291687069, 49.69042205810558], [9.64877986907959, 49.690502166748104], [9.66048812866228, 49.68310928344738], [9.671889305114973, 49.683181762695426], [9.682978630066088, 49.690700531005916], [9.681968688964844, 49.713058471679744], [9.704829216003475, 49.71319961547857], [9.704668998718375, 49.71691894531256], [9.715788841247615, 49.724449157714844], [9.715949058532942, 49.72072219848633], [9.721829414367733, 49.71702957153332], [9.72245979309082, 49.70212173461937], [9.734221458435059, 49.6947593688966], [9.73471069335966, 49.683601379394645], [9.740410804748763, 49.683631896972656], [9.757230758666935, 49.69120025634777], [9.756610870361271, 49.70610046386747], [9.773440361023177, 49.713661193847884], [9.784719467163256, 49.71747207641596], [9.790429115295694, 49.71751022338867], [9.795988082885742, 49.72127151489269], [9.795839309692326, 49.72497940063482], [9.807269096374796, 49.725078582763956], [9.801708221435774, 49.721309661865234], [9.802008628845272, 49.713871002197266], [9.813429832458553, 49.713958740234375], [9.813579559326456, 49.71023941040039], [9.825158119201944, 49.70660018920893], [9.836868286132812, 49.69924926757807], [9.84302043914795, 49.68814086914074], [9.843460083007926, 49.677001953125], [9.837759971618823, 49.67694854736328], [9.832489967346191, 49.66576004028349], [9.832929611206168, 49.654621124267805], [9.838639259338606, 49.6546707153322], [9.83878135681158, 49.65095138549822], [9.83308029174799, 49.65090179443382], [9.83892917633051, 49.647239685058594], [9.839218139648494, 49.639801025390625], [9.856319427490519, 49.63996124267578], [9.862169265747355, 49.636291503906534], [9.862459182739258, 49.62887191772484], [9.874138832092342, 49.62155151367193], [9.868579864502124, 49.61779022216825], [9.874558448791788, 49.61042022705095], [9.880399703979776, 49.606769561767635], [9.880538940429688, 49.60306167602539], [9.86345005035406, 49.60290908813482], [9.869289398193644, 49.599250793457145], [9.858168601989917, 49.59173965454113], [9.84678936004633, 49.59164047241211], [9.847208976745776, 49.58052062988304], [9.85290908813488, 49.580570220947436], [9.85333061218273, 49.569450378418026], [9.847640037536735, 49.56940078735363], [9.847779273987044, 49.56570053100586], [9.836679458618335, 49.55818176269537], [9.825299263000431, 49.55807113647461], [9.825579643249796, 49.550659179687614], [9.837099075317383, 49.547069549560604], [9.84847831726097, 49.547180175781364], [9.848620414733944, 49.543479919433594], [9.860129356384505, 49.5398788452149], [9.865819931030273, 49.53993988037121], [9.871099472045842, 49.55109024047863], [9.876790046691838, 49.55115127563471], [9.876650810241756, 49.55485153198248], [9.870678901672306, 49.56219100952177], [9.881798744201944, 49.569709777832145], [9.881660461425952, 49.5734214782716], [9.887349128723145, 49.573471069336165], [9.892910003662166, 49.57722091674816], [9.898598670959586, 49.57727050781256], [9.904159545898608, 49.581031799316406], [9.921249389648722, 49.58118057250982], [9.92138957977312, 49.57746887207054], [9.915699005127124, 49.57741928100597], [9.915828704834269, 49.5737190246582], [9.90497970581066, 49.55881118774414], [9.90511894226097, 49.5551109313966], [9.922199249267578, 49.5552711486817], [9.92776012420677, 49.559020996093864], [9.933589935302848, 49.55537033081055], [9.933719635009822, 49.551670074463004], [9.9281587600708, 49.54792022705101], [9.933850288391284, 49.547969818115234], [9.933988571167276, 49.54426956176769], [9.92842960357666, 49.54051971435558], [9.93437862396246, 49.533180236816406], [9.929219245910758, 49.51834106445335], [9.923529624939249, 49.518280029296875], [9.923660278320312, 49.51457977294933], [9.929478645324707, 49.51095199584978], [9.929609298706339, 49.50725173950207], [9.93542957305931, 49.50360870361345], [9.929740905761719, 49.503551483154354], [9.929998397827262, 49.49615859985363], [9.924578666687296, 49.48871994018566], [9.94201946258545, 49.47780990600609], [9.959210395813159, 49.474281311035384], [9.964899063110352, 49.47433853149414], [9.964769363403377, 49.47803115844732], [9.976148605346964, 49.47814178466808], [9.981710433959904, 49.48189163208036], [9.981840133667049, 49.47819137573265], [9.993219375610636, 49.47830200195335], [9.998778343200684, 49.48205184936535], [10.00446891784668, 49.482101440429915], [10.010290145874308, 49.47846221923834], [10.021670341491813, 49.47856903076166], [10.027239799499455, 49.4823112487793], [10.032560348510799, 49.49343109130888], [10.038139343261776, 49.497169494629134], [10.0494003295899, 49.500961303710994], [10.05496978759794, 49.50469207763683], [10.060669898986873, 49.504741668701286], [10.066000938415812, 49.515861511230696], [10.060298919677734, 49.51581192016613], [10.0487709045413, 49.5194091796875], [10.04865932464611, 49.52310180664068], [10.042959213257006, 49.523052215576286], [10.048539161682072, 49.526790618896484], [10.065508842468319, 49.53063201904308], [10.071079254150675, 49.53435897827143], [10.070828437805176, 49.54175186157238], [10.088059425354174, 49.53818893432617], [10.09375858306879, 49.53823852539074], [10.093879699707315, 49.53454971313471], [10.099819183349837, 49.52721023559593], [10.09424018859886, 49.523479461670036], [10.088548660278377, 49.52342987060547], [10.082968711853312, 49.519691467285384], [10.083209037780989, 49.51231002807623], [10.089150428772086, 49.504989624023665], [10.09473037719755, 49.50872039794922], [10.111819267273177, 49.50886154174805], [10.129039764404354, 49.50531005859375], [10.123579025268839, 49.497901916503906], [10.117878913879338, 49.49784851074219], [10.106719970703296, 49.49037933349638], [10.106960296630973, 49.48300933837908], [10.118469238281534, 49.47941970825207], [10.118580818176326, 49.475738525390625], [10.124508857727335, 49.46842193603527], [10.124631881713867, 49.46474075317377], [10.130438804626522, 49.46110916137707], [10.124859809875545, 49.45737075805664], [10.107898712158487, 49.453540802002124], [10.102548599243107, 49.442440032958984], [10.114049911499308, 49.43886184692383], [10.125438690185831, 49.43896102905285], [10.131248474121378, 49.43532943725597], [10.142629623413143, 49.435428619384766], [10.14867019653326, 49.4244384765625], [10.143088340759391, 49.420711517333984], [10.148778915405387, 49.42076110839872], [10.160608291626204, 49.40613937377941], [10.154918670654297, 49.40608978271479], [10.160838127136458, 49.39878082275396], [10.155150413513354, 49.39873123168974], [10.17243862152128, 49.39152908325195], [10.15569019317627, 49.38034057617182], [10.14988899230957, 49.38396072387701], [10.127119064331055, 49.38375091552746], [10.115939140319995, 49.376281738281364], [10.127639770508097, 49.365348815918026], [10.12775039672863, 49.361671447753906], [10.122050285339526, 49.36162185668945], [10.122150421142635, 49.35794067382835], [10.127949714660929, 49.35430908203148], [10.133650779724348, 49.354370117187614], [10.133849143982161, 49.34701156616222], [10.128150939941634, 49.3469619750976], [10.116660118103027, 49.350521087646484], [10.11126041412382, 49.33943176269554], [10.111349105835018, 49.33576202392595], [10.117150306701717, 49.332130432128906], [10.122850418091048, 49.332191467285384], [10.122939109802246, 49.32851028442394], [10.117240905761719, 49.32846069335932], [10.128739356994856, 49.32489013671892], [10.12882995605463, 49.32120895385748], [10.14022827148466, 49.32133102416992], [10.140130043029956, 49.325012207031534], [10.151530265808162, 49.325119018554744], [10.151627540588606, 49.321441650390625], [10.157520294189396, 49.31415176391607], [10.151908874511662, 49.31040954589844], [10.146208763122559, 49.31035995483421], [10.146308898925838, 49.30667877197277], [10.140700340271223, 49.302951812744254], [10.14096927642828, 49.29191970825224], [10.152558326721191, 49.28469085693382], [10.158258438110522, 49.28475189208996], [10.162669181823901, 49.27928924560547], [10.158530235290641, 49.2737197875976], [10.152819633484114, 49.2736701965332], [10.152999877929972, 49.266330718994254], [10.141759872436694, 49.25885009765619], [10.13604831695585, 49.25880050659197], [10.130090713501204, 49.26976013183594], [10.141420364380167, 49.27355194091797], [10.13000869751005, 49.27344131469721], [10.124559402466048, 49.26235198974615], [10.119018554687557, 49.25495147705101], [10.12473011016857, 49.25500869750982], [10.141930580139217, 49.251510620117415], [10.142009735107479, 49.247840881347656], [10.136299133300781, 49.24777984619135], [10.1306791305542, 49.24404144287115], [10.13637924194353, 49.24409866333008], [10.136939048767147, 49.218391418457315], [10.142719268798828, 49.21477127075201], [10.148430824279842, 49.21483993530285], [10.148588180542106, 49.20748901367199], [10.137169837951717, 49.20738220214844], [10.137240409851358, 49.20372009277338], [10.131599426269588, 49.19997024536144], [10.137388229370288, 49.19636154174833], [10.137458801269531, 49.19269180297857], [10.143099784851302, 49.196418762207145], [10.14302921295166, 49.200088500976676], [10.154598236084041, 49.19287109375], [10.16031932830839, 49.19293212890631], [10.166098594665584, 49.189319610595646], [10.16623973846464, 49.18198013305687], [10.17774963378912, 49.17842102050781], [10.183539390563908, 49.17480850219755], [10.183459281921557, 49.17848205566412], [10.189179420471191, 49.178539276123104], [10.189330101013184, 49.17119979858393], [10.200759887695483, 49.17132186889654], [10.200830459594727, 49.16765213012701], [10.206769943237418, 49.1567001342774], [10.206839561462573, 49.15303039550781], [10.212558746337947, 49.15309143066429], [10.218209266662654, 49.156822204589844], [10.223850250244425, 49.16054916381836], [10.223778724670694, 49.16421890258795], [10.229570388793888, 49.16062164306635], [10.241008758544979, 49.16072082519554], [10.241160392761287, 49.15338897705078], [10.24695968627941, 49.1497802734375], [10.25846958160406, 49.146221160888615], [10.264269828796671, 49.14262008666992], [10.264349937439022, 49.138950347900675], [10.270289421081543, 49.127990722656364], [10.264559745788574, 49.1279411315918], [10.253189086914006, 49.124160766601676], [10.24188041687006, 49.116699218750114], [10.242010116577205, 49.10937118530285], [10.23629093170166, 49.10931015014671], [10.230488777160872, 49.11291885375982], [10.2247695922851, 49.11286163330084], [10.22490024566656, 49.10552215576172], [10.219288825988826, 49.098129272460994], [10.213559150695858, 49.09807205200218], [10.219360351562557, 49.094459533691406], [10.225089073181266, 49.09452056884771], [10.23074913024908, 49.09825134277338], [10.24233818054222, 49.091030120849666], [10.259538650512866, 49.091209411621094], [10.259730339050236, 49.08021163940441], [10.253999710082951, 49.080150604248104], [10.253930091858194, 49.08382034301769], [10.248320579528865, 49.07643127441412], [10.259860038757381, 49.07287979125999], [10.265578269958667, 49.07294082641613], [10.27138996124279, 49.06933975219738], [10.27150917053234, 49.06200027465826], [10.265769958496037, 49.06193923950195], [10.265888214111499, 49.05459976196295], [10.260209083557413, 49.0508918762207], [10.260379791259766, 49.03989028930687], [10.266120910644645, 49.039951324463004], [10.271809577941838, 49.04368209838873], [10.277550697326717, 49.043739318847656], [10.277488708496321, 49.04740142822271], [10.294890403747843, 49.03659057617199], [10.306259155273438, 49.04404067993164], [10.312069892883471, 49.04043960571295], [10.312189102173022, 49.03311157226585], [10.317938804626522, 49.03316879272461], [10.329489707946777, 49.02962112426769], [10.335298538208008, 49.02602005004894], [10.346670150757063, 49.03347015380865], [10.346740722656307, 49.02981185913097], [10.363980293273926, 49.029991149902344], [10.3641099929809, 49.022659301757926], [10.358429908752498, 49.01893997192394], [10.37007045745844, 49.01173019409208], [10.370128631591854, 49.00806045532232], [10.364378929138354, 49.007999420166016], [10.364439964294661, 49.00434112548834], [10.387469291687069, 49.00458145141607], [10.393299102783374, 49.00098037719749], [10.393489837646655, 48.98997879028332], [10.410779953002987, 48.9901695251466], [10.41661930084257, 48.98656082153332], [10.416689872741813, 48.98289871215832], [10.422469139099178, 48.979270935058594], [10.416749000549544, 48.9792289733889], [10.416749000549544, 48.96821975708019], [10.422389984130916, 48.96820068359375], [10.428009986877669, 48.97183990478533], [10.433599472046069, 48.97179031372093], [10.43916034698509, 48.96437072753906], [10.433560371399096, 48.96440887451172], [10.433529853820914, 48.960720062255916], [10.439129829406738, 48.960681915283374], [10.439108848571891, 48.95698165893566], [10.444700241088867, 48.956939697265625], [10.444659233093319, 48.949550628662394], [10.450228691101358, 48.9458122253418], [10.450249671936206, 48.94950866699219], [10.45583820343029, 48.94945907592779], [10.455828666687182, 48.9457702636721], [10.46698093414335, 48.9382896423341], [10.461370468139933, 48.93464279174816], [10.450179100036564, 48.93843078613281], [10.450159072876204, 48.934741973877124], [10.455759048462028, 48.93468856811518], [10.455739974975586, 48.930999755859375], [10.466918945312557, 48.92721176147472], [10.466859817504826, 48.91613006591797], [10.46122837066656, 48.91247940063499], [10.444378852844522, 48.90893936157221], [10.43877029418951, 48.90898895263683], [10.438708305358887, 48.90159988403343], [10.455549240112305, 48.901458740234546], [10.45551872253435, 48.89775848388683], [10.461110115051326, 48.89402008056658], [10.466718673706339, 48.89397048950218], [10.466679573059366, 48.886569976806754], [10.461018562316838, 48.87924957275402], [10.466609954834212, 48.875499725341854], [10.460939407348576, 48.864471435546875], [10.466549873351994, 48.86442184448265], [10.466508865356445, 48.857040405273494], [10.460870742797908, 48.85338973999035], [10.438398361206055, 48.8498992919923], [10.438329696655217, 48.838809967041016], [10.455180168151912, 48.83868026733404], [10.460769653320312, 48.83491897583036], [10.460708618164006, 48.82384109497082], [10.455081939697209, 48.82020187377941], [10.455059051513786, 48.81650924682623], [10.46067047119152, 48.81644821166992], [10.460650444030762, 48.81275939941406], [10.45504093170166, 48.81280899047846], [10.455028533935831, 48.809120178222656], [10.44939994812006, 48.809169769287394], [10.443758964538858, 48.80553054809582], [10.443740844726733, 48.80184173583979], [10.438119888305664, 48.80189132690441], [10.43814086914091, 48.805580139160384], [10.432530403137264, 48.80562973022461], [10.432489395141715, 48.79825210571295], [10.443719863891886, 48.798141479492415], [10.44367885589611, 48.79074859619152], [10.438070297241268, 48.790809631347656], [10.43802928924589, 48.783420562744425], [10.443649291992244, 48.78335952758812], [10.443629264831713, 48.779670715332145], [10.437978744507006, 48.77603149414068], [10.432370185852164, 48.776081085205135], [10.43238830566412, 48.77978134155285], [10.42677021026634, 48.779830932617415], [10.421119689941634, 48.77619171142601], [10.426688194275187, 48.76504898071312], [10.43228816986101, 48.76131057739252], [10.437908172607365, 48.761249542236385], [10.43789005279541, 48.75756072998058], [10.426649093628214, 48.757671356201456], [10.426608085632438, 48.75027847290039], [10.432239532470703, 48.750221252441406], [10.432220458984432, 48.746528625488224], [10.437849044800032, 48.7464714050293], [10.443440437317008, 48.74271011352545], [10.449071884155273, 48.742671966552905], [10.44906044006376, 48.738979339599894], [10.454639434814737, 48.731529235839844], [10.46028041839611, 48.73516845703131], [10.471538543701172, 48.73876190185564], [10.4658975601198, 48.735118865966854], [10.471501350402775, 48.731369018554915], [10.47708892822277, 48.723941802978516], [10.477059364318904, 48.71652984619152], [10.488308906555346, 48.7164306640625], [10.49390888214134, 48.70898056030279], [10.488280296325968, 48.709030151367244], [10.488259315490723, 48.705341339111555], [10.49384975433361, 48.697891235351506], [10.4938383102417, 48.694198608398494], [10.499459266662768, 48.69414138793957], [10.505069732666186, 48.6903915405274], [10.499428749084586, 48.68674850463867], [10.493828773498592, 48.69050216674816], [10.488190650939885, 48.686859130859375], [10.482549667358683, 48.67953109741211], [10.471259117126692, 48.67224884033226], [10.46000862121599, 48.67235183715843], [10.459988594055233, 48.66865158081055], [10.426230430603255, 48.668991088867244], [10.420589447021484, 48.66535186767584], [10.41498947143566, 48.66910171508812], [10.41498947143566, 48.67280197143566], [10.431879997253475, 48.67263031005882], [10.431929588317871, 48.683712005615234], [10.426309585571516, 48.687461853027344], [10.431968688964844, 48.69480133056652], [10.437598228454533, 48.69474029541021], [10.437580108642578, 48.691051483154354], [10.443209648132438, 48.69099044799805], [10.44884967803955, 48.69462966918951], [10.448868751525993, 48.69832992553722], [10.44326019287115, 48.70207977294933], [10.431988716125602, 48.69849014282232], [10.426378250122355, 48.70225143432617], [10.415119171142635, 48.70236206054693], [10.415109634399698, 48.69866180419916], [10.409468650817928, 48.695018768310604], [10.403817176818904, 48.69137954711914], [10.398189544678019, 48.69144058227545], [10.398100852966422, 48.67296218872082], [10.39245986938505, 48.66931915283203], [10.37555980682373, 48.66950225830078], [10.375528335571289, 48.66210937500006], [10.369869232177734, 48.658481597900504], [10.358600616455078, 48.65859222412121], [10.358670234680403, 48.67337036132818], [10.347478866577205, 48.69562149047874], [10.330499649048022, 48.695732116699276], [10.324809074402026, 48.68838882446295], [10.307769775390625, 48.69580078124994], [10.302069664001692, 48.69580078124994], [10.302079200744629, 48.69948196411144], [10.290649414062727, 48.7067985534668], [10.279189109802473, 48.71039962768555], [10.273460388183594, 48.703029632568416], [10.279197692871321, 48.699401855469034], [10.279197692871321, 48.692070007324276], [10.273470878601017, 48.68836975097656], [10.261988639831827, 48.684600830078125], [10.273480415344522, 48.67736053466797], [10.262008666992188, 48.67361068725586], [10.262008666992188, 48.6699485778808], [10.267759323120174, 48.66633224487299], [10.267759323120174, 48.66265869140642], [10.27921009063732, 48.659038543701286], [10.27921009063732, 48.65536880493187], [10.27348899841337, 48.651679992675895], [10.284918785095272, 48.65169906616211], [10.284918785095272, 48.64802932739258], [10.296300888061523, 48.640651702880916], [10.301978111267033, 48.640621185302734], [10.301968574524096, 48.63694000244146], [10.307630538940714, 48.62953948974615], [10.33017826080328, 48.61455917358421], [10.324519157409725, 48.610931396484375], [10.301910400390852, 48.61114883422863], [10.307549476623649, 48.6074104309082], [10.301890373229924, 48.60746002197277], [10.301849365234546, 48.596389770507926], [10.307479858398494, 48.58895874023449], [10.313130378723201, 48.58887863159191], [10.31875991821289, 48.58512115478527], [10.318658828735295, 48.56295013427757], [10.324309349060002, 48.56288146972656], [10.31297969818121, 48.555629730224666], [10.307330131530819, 48.55569076538097], [10.307248115539664, 48.537208557129134], [10.318519592285213, 48.529701232910156], [10.301539421081713, 48.52249145507818], [10.273249626159782, 48.52283096313482], [10.267600059509562, 48.52659225463873], [10.256278991699219, 48.526729583740234], [10.250599861145133, 48.52310180664085], [10.25625038146984, 48.51934051513683], [10.250570297241268, 48.5157203674317], [10.24491977691656, 48.51947021484398], [10.23357009887701, 48.519458770751896], [10.239240646362475, 48.51585006713867], [10.233599662780705, 48.515789031982536], [10.23362922668457, 48.512088775634766], [10.239240646362475, 48.51214218139654], [10.23925876617443, 48.508399963379134], [10.244940757751579, 48.50088882446295], [10.239350318908691, 48.4971809387207], [10.222559928894213, 48.49695968627924], [10.205809593200968, 48.48917007446289], [10.183449745178223, 48.48125076293951], [10.183490753173999, 48.477539062500114], [10.189059257507552, 48.481380462646484], [10.189149856567326, 48.473941802978516], [10.183539390563908, 48.47381973266613], [10.183580398559684, 48.470111846924], [10.178018569946346, 48.4662704467774], [10.172410011291731, 48.46615982055687], [10.138798713684139, 48.461738586425895], [10.133139610290812, 48.465339660644645], [10.133190155029524, 48.46162033081066], [10.127529144287394, 48.4652099609375], [10.121839523315487, 48.47249984741222], [10.121748924255314, 48.47991180419922], [10.110489845276163, 48.483371734619254], [10.09935188293457, 48.475730895996094], [10.088179588317814, 48.4717903137207], [10.093838691711369, 48.468200683593864], [10.065841674804972, 48.46392059326172], [10.060290336608887, 48.46010971069347], [10.06022834777849, 48.463809967041016], [10.037790298462141, 48.463359832763786], [10.03789043426525, 48.45595169067377], [10.043549537658976, 48.45236206054699], [10.032429695129338, 48.44472885131836], [10.032480239868221, 48.441009521484375], [10.043749809265194, 48.43754196167015], [10.043800354003906, 48.433830261230696], [10.038200378418082, 48.43371963500982], [10.021539688110352, 48.42227172851574], [10.021698951721191, 48.41115188598633], [10.016150474548567, 48.40732955932617], [9.999450683594034, 48.39958953857416], [9.993850708007812, 48.39949035644554], [9.988360404968262, 48.39196014404291], [9.971670150756836, 48.38422012329113], [9.97184753417963, 48.37310028076172], [9.983180046081486, 48.36589050292969], [9.98871994018549, 48.36970138549816], [9.988658905029354, 48.373409271240405], [9.994260787964151, 48.373508453369254], [9.999919891357479, 48.36989974975597], [10.000219345092717, 48.351329803467024], [10.005829811096135, 48.35144042968773], [10.011480331420842, 48.34782028198242], [10.011589050292969, 48.340389251708984], [10.017248153686523, 48.3367805480957], [10.022959709167537, 48.329448699951286], [10.028559684753361, 48.32955169677746], [10.028669357299975, 48.32210922241211], [10.034369468689079, 48.3147811889649], [10.040019035339299, 48.31114959716797], [10.045709609985295, 48.30381011962902], [10.045768737793026, 48.300079345703125], [10.051409721374796, 48.29645919799816], [10.056999206543196, 48.29655075073242], [10.0683403015139, 48.285560607910156], [10.068378448486385, 48.28184127807617], [10.062849044799805, 48.278030395507926], [10.068529129028377, 48.27067184448248], [10.068588256835938, 48.26694107055664], [10.063040733337402, 48.26313018798851], [10.06867885589628, 48.2594909667971], [10.074249267578239, 48.25957870483404], [10.068779945373706, 48.25204086303722], [10.063239097595215, 48.24824142456049], [10.068919181823787, 48.240859985351676], [10.06906890869169, 48.22967910766613], [10.080219268798885, 48.2298393249514], [10.08036041259777, 48.21865081787115], [10.085980415344522, 48.215000152588004], [10.086348533630598, 48.18515014648449], [10.09191036224371, 48.185218811035156], [10.091990470886287, 48.177749633789176], [10.097638130188102, 48.17036056518566], [10.097728729248274, 48.16289138793968], [10.103408813476847, 48.15174865722662], [10.10912036895769, 48.13687133789068], [10.114720344543684, 48.13319015502941], [10.11474990844755, 48.129459381103686], [10.120310783386174, 48.12952041625999], [10.120379447937012, 48.12205123901373], [10.12592887878435, 48.122100830078125], [10.131509780883903, 48.118419647216854], [10.1370601654055, 48.11846923828125], [10.137169837951717, 48.1072616577149], [10.142750740051497, 48.10358047485374], [10.142779350281046, 48.099842071533146], [10.137228965759277, 48.0997886657716], [10.14280986785883, 48.09609985351574], [10.142848968505803, 48.092369079589844], [10.137298583984602, 48.09231185913109], [10.137399673462198, 48.08110046386719], [10.14294910430931, 48.081161499023665], [10.14319992065441, 48.05126190185558], [10.132219314575252, 48.039951324462834], [10.12671089172369, 48.03615951538086], [10.137848854064941, 48.02878952026373], [10.137919425964355, 48.02132034301758], [10.132378578186092, 48.02127075195335], [10.132408142090128, 48.017528533935604], [10.121389389038086, 48.00996017456066], [10.121488571167276, 47.99874877929693], [10.116009712219238, 47.991218566894474], [10.116109848022518, 47.980010986328125], [10.105040550232161, 47.97991180419933], [10.093999862670955, 47.976058959961165], [10.088489532470646, 47.97227096557617], [10.088519096374512, 47.96854019165062], [10.083058357238997, 47.96100997924805], [10.083089828491438, 47.95727920532249], [10.088648796081486, 47.953601837158374], [10.088679313659838, 47.949859619140625], [10.094219207763842, 47.94990921020536], [10.110899925232104, 47.9388694763183], [10.105448722839526, 47.92760848999018], [10.105478286743164, 47.92387008666998], [10.11100959777832, 47.923919677734375], [10.11108875274681, 47.912712097168026], [10.105568885803166, 47.91265869140625], [10.100057601928938, 47.9088706970216], [10.100119590759334, 47.90140151977562], [10.10569000244169, 47.893959045410156], [10.105770111084041, 47.88275909423828], [10.100289344787598, 47.87524032592779], [10.08926868438715, 47.87139129638683], [10.078228950500659, 47.87129211425781], [10.083830833435059, 47.86013031005871], [10.094839096069506, 47.863960266113395], [10.100340843200968, 47.86775207519537], [10.10585021972662, 47.867809295654354], [10.10590934753435, 47.86032104492199], [10.100388526916788, 47.860279083251896], [10.100408554077148, 47.85655212402355], [10.089409828186035, 47.848979949951286], [10.094950675964299, 47.845279693603516], [10.100449562072924, 47.84907150268555], [10.100429534912166, 47.85280990600597], [10.105929374694881, 47.856601715088004], [10.111488342285327, 47.84917068481457], [10.100460052490519, 47.84534072875982], [10.105989456176701, 47.845378875732536], [10.106008529663143, 47.84164047241228], [10.111550331115723, 47.83795166015631], [10.117098808288745, 47.83052062988287], [10.122629165649414, 47.82683181762701], [10.128150939941634, 47.82686996459972], [10.133680343628214, 47.82318115234369], [10.133698463440169, 47.819438934326286], [10.128187179565543, 47.815650939941634], [10.117158889770565, 47.81555175781244], [10.11165904998785, 47.81175994873047], [10.111671447754077, 47.808021545410384], [10.11718845367443, 47.80807113647478], [10.11719989776634, 47.8043212890625], [10.100660324096737, 47.804180145263786], [10.09514045715349, 47.807868957519645], [10.089619636535758, 47.80781936645519], [10.089650154113713, 47.800331115722656], [10.08416843414335, 47.796562194824276], [10.073160171508903, 47.79270935058594], [10.067669868469522, 47.788909912109375], [10.06767940521246, 47.785171508789176], [10.073189735412598, 47.78522109985357], [10.073199272155705, 47.781471252441406], [10.078688621520996, 47.78527069091797], [10.08422088623064, 47.77782058715826], [10.078729629516772, 47.774028778076286], [10.100749015808333, 47.76671981811529], [10.106268882751579, 47.76676940917969], [10.111780166626204, 47.763069152832145], [10.117288589477539, 47.76311111450218], [10.111780166626204, 47.75931167602545], [10.11730003356945, 47.755599975585994], [10.11730003356945, 47.751861572265625], [10.111788749694824, 47.74430084228521], [10.111788749694824, 47.73678970336937], [10.117308616638468, 47.736839294433594], [10.117308616638468, 47.72933197021496], [10.111788749694824, 47.72552108764654], [10.111788749694824, 47.721771240234375], [10.12282943725603, 47.71438217163086], [10.128370285034293, 47.70693969726585], [10.139469146728516, 47.70709991455084], [10.133939743042163, 47.699531555175895], [10.122850418091048, 47.691871643066634], [10.128439903259448, 47.68822860717785], [10.128538131714151, 47.67704010009777], [10.117398262024153, 47.6730690002442], [10.111809730529842, 47.67296218872099], [10.111839294433537, 47.66923141479492], [10.09514045715349, 47.668910980224666], [10.089639663696289, 47.67638015747082], [10.084130287170467, 47.67631912231468], [10.089609146118335, 47.668838500976676], [10.089598655700911, 47.66506195068354], [10.078530311584473, 47.65739059448259], [10.078489303588867, 47.64984130859375], [10.072938919067667, 47.64223098754894], [10.073051452636776, 47.63850021362305], [10.067499160766602, 47.64221954345703], [10.067478179931754, 47.6459693908692], [10.067489624023665, 47.6497421264649], [10.073051452636776, 47.66112136840832], [10.062110900878906, 47.66482925415056], [10.062158584594727, 47.67615127563482], [10.056720733642805, 47.68367004394554], [10.045789718628043, 47.67988204956055], [10.040349960327376, 47.6761207580567], [10.029509544372786, 47.676158905029354], [10.02408981323265, 47.679931640625114], [10.029499053955362, 47.68365859985346], [10.024051666259766, 47.691162109375114], [10.002359390259073, 47.68370056152355], [9.996920585632495, 47.68370056152355], [9.986089706421012, 47.67621994018549], [9.98069953918474, 47.66875076293957], [9.975259780883846, 47.66873931884783], [9.975339889526424, 47.65755081176758], [9.964459419250545, 47.65753936767601], [9.964490890502987, 47.65380859374994], [9.94268035888689, 47.65748214721691], [9.937199592590616, 47.661178588867244], [9.931780815124569, 47.65744018554682], [9.926328659057674, 47.657409667968864], [9.915369033813533, 47.66107177734375], [9.91532993316656, 47.66477203369146], [9.893480300903434, 47.66463851928728], [9.88249874114996, 47.6682586669923], [9.876929283142317, 47.67562866210943], [9.86045074462885, 47.67919921875], [9.84401988983177, 47.67903137207031], [9.833119392394963, 47.675209045410156], [9.827639579773006, 47.67515182495123], [9.827698707580737, 47.671440124511776], [9.833177566528605, 47.67150115966808], [9.827878952026595, 47.66032028198248], [9.822409629821834, 47.66027069091808], [9.816989898681697, 47.65649032592796], [9.817049026489428, 47.65279006958008], [9.800629615783691, 47.6525993347168], [9.795219421386662, 47.648830413818416], [9.800688743591593, 47.648899078369254], [9.800750732421818, 47.64519119262695], [9.795409202575854, 47.63772201538086], [9.784529685974064, 47.63389205932617], [9.762899398803995, 47.618808746337834], [9.757429122924975, 47.61872863769531], [9.752020835876522, 47.614959716796875], [9.757570266723633, 47.61133193969738], [9.746689796447981, 47.60747909545921], [9.741229057312069, 47.60739898681646], [9.74108982086176, 47.614799499511776], [9.746560096741007, 47.614879608154354], [9.746498107910213, 47.61857986450207], [9.73561954498291, 47.61471939086937], [9.735548973083496, 47.61841964721691], [9.730220794677791, 47.610927581787166], [9.719279289245833, 47.610752105713004], [9.708500862121639, 47.60317993164085], [9.703030586242619, 47.60309219360374], [9.697489738464355, 47.606708526611555], [9.6920175552371, 47.606609344482365], [9.69185829162626, 47.61402893066412], [9.68108940124523, 47.606430053711165], [9.67562007904047, 47.60633087158203], [9.67553997039812, 47.610038757324446], [9.669999122619629, 47.61365890502924], [9.65905857086176, 47.61347198486351], [9.653680801391658, 47.60964202880865], [9.653749465942326, 47.605899810791016], [9.637338638305607, 47.605548858642635], [9.637410163879338, 47.601779937744254], [9.643010139465332, 47.59434890747082], [9.643069267273063, 47.590568542480526], [9.637598991394043, 47.59043884277355], [9.637539863586483, 47.59421920776367], [9.6266002655031, 47.59397125244158], [9.621189117431584, 47.59004211425787], [9.621248245239315, 47.586238861083984], [9.615829467773665, 47.58230209350609], [9.611084938049544, 47.583831787109375], [9.608097076416243, 47.58755493164068], [9.60344600677496, 47.58887481689476], [9.581978797912711, 47.585968017578125], [9.56746578216547, 47.5864715576173], [9.562523841858024, 47.58835983276367], [9.55729866027832, 47.58922958374052], [9.542058944702262, 47.6003532409668], [9.536359786987248, 47.60732650756847], [9.534940719604549, 47.61677932739258], [9.533099174499512, 47.6181373596192], [9.528965950012434, 47.61898803710943], [9.52568531036377, 47.623847961426065], [9.523967742919922, 47.6275901794433], [9.523620605468693, 47.635356903076286], [9.52198410034191, 47.63799285888672], [9.52011966705328, 47.6400260925293], [9.516216278076229, 47.64183044433594], [9.506452560424805, 47.64893722534191], [9.499274253845442, 47.6525230407716], [9.495408058166447, 47.65317535400396], [9.486294746398983, 47.65191268920921], [9.478375434875659, 47.65289306640625], [9.469692230224894, 47.65177917480469], [9.465831756591854, 47.6531867980957], [9.457508087158317, 47.65818023681669], [9.441762924194506, 47.65986251831055], [9.42590522766136, 47.66849136352545], [9.417974472045898, 47.66986846923828], [9.408263206481934, 47.67041397094749], [9.399420738220158, 47.66979217529308], [9.390769958496321, 47.667583465576286], [9.375654220581282, 47.66731643676758], [9.368685722351074, 47.66405487060558], [9.356178283691577, 47.66404342651367], [9.341403961181811, 47.66875076293957], [9.334666252136174, 47.67262268066412], [9.330163002014217, 47.67411041259771], [9.320637702942065, 47.676448822021484], [9.315168380737305, 47.676967620849894], [9.307776451111067, 47.68092346191406], [9.29756069183361, 47.68486404418945], [9.285052299499625, 47.692501068115234], [9.275585174560717, 47.69544601440441], [9.26811504364008, 47.69886779785156], [9.252408027649153, 47.70838165283203], [9.233866691589583, 47.7250671386721], [9.23017883300787, 47.731197357177734], [9.230141639709473, 47.736946105957145], [9.231304168701286, 47.74221801757835], [9.227869033813647, 47.7461318969726], [9.224432945251522, 47.74821090698248], [9.216200828552246, 47.751583099365234], [9.197332382202205, 47.755695343017635], [9.190558433532829, 47.75961303710949], [9.165717124939022, 47.769351959228686], [9.159990310668945, 47.772415161132926], [9.141119003296012, 47.77649688720703], [9.134078979492244, 47.78086853027344], [9.130152702331827, 47.78584671020519], [9.121990203857706, 47.791694641113565], [9.115345001220646, 47.79426193237316], [9.105968475342081, 47.8001976013183], [9.099188804626579, 47.80259704589844], [9.08927154541044, 47.804721832275504], [9.079936981201172, 47.81060791015625], [9.074372291564998, 47.812454223632926], [9.067155838012752, 47.8199272155764], [9.053484916687466, 47.82153701782238], [9.044014930725098, 47.82368850708008], [9.04156684875528, 47.823200225830305], [9.032415390014762, 47.81604766845726], [9.03170299530035, 47.814659118652344], [9.031956672668514, 47.812698364257756], [9.039977073669831, 47.80638504028343], [9.049213409423828, 47.80146789550781], [9.053437232971646, 47.79703903198265], [9.059572219848917, 47.79360580444359], [9.066434860229492, 47.787025451660384], [9.071352958679597, 47.783535003662166], [9.090963363647575, 47.773105621338004], [9.120907783508244, 47.764312744140625], [9.133575439453068, 47.75558090209978], [9.141164779663427, 47.753089904785384], [9.1531400680542, 47.75303649902344], [9.15660190582281, 47.74891281127947], [9.162070274353084, 47.74494552612305], [9.171353340149153, 47.7411346435548], [9.177002906799373, 47.737754821777514], [9.17968559265131, 47.73394775390625], [9.180218696594181, 47.7298011779788], [9.181453704834041, 47.72787094116222], [9.181977272033748, 47.724910736084155], [9.184946060181005, 47.719535827636946], [9.183988571167049, 47.70956039428722], [9.187720298767033, 47.70711135864269], [9.19381332397461, 47.701133728027514], [9.206495285034237, 47.69507217407238], [9.212869644165096, 47.68995285034174], [9.215381622314851, 47.68600082397478], [9.215147972107047, 47.67728424072283], [9.221157073975064, 47.67087554931646], [9.221139907837028, 47.66815185546875], [9.21206378936779, 47.664867401123104], [9.198670387268066, 47.66923141479492], [9.187570571899528, 47.669250488281364], [9.185544967651822, 47.667484283447266], [9.185042381286564, 47.66598129272461], [9.185763359069824, 47.65773773193382], [9.174505233764762, 47.658031463623104], [9.169444084167935, 47.66188430786144], [9.167332649231355, 47.66219329833996], [9.166274070739803, 47.661457061767805], [9.166508674621923, 47.65954971313499], [9.164094924927042, 47.65358352661133], [9.159796714782772, 47.65576171875], [9.157997131347997, 47.658344268799], [9.152946472168026, 47.66057205200207], [9.148977279663029, 47.665767669677734], [9.129564285278775, 47.668991088867415], [9.130357742309684, 47.67283630371122], [9.129965782165527, 47.67522048950224], [9.12113285064703, 47.684791564941634], [9.116266250610295, 47.68783187866222], [9.104379653931119, 47.689903259277344], [9.111738204956339, 47.69502258300798], [9.111232757568757, 47.69795227050804], [9.103839874267635, 47.70488739013683], [9.100517272949673, 47.705894470215014], [9.094386100769043, 47.710006713867244], [9.082736015320165, 47.712699890137], [9.050450325012264, 47.72615432739269], [9.04483890533453, 47.72684478759794], [9.03217315673868, 47.73212814331072], [9.023591995239428, 47.73363876342768], [9.01588630676315, 47.73807525634777], [9.0055513381958, 47.74199295043957], [9.000883102417049, 47.74634552001953], [8.998032569885254, 47.74740219116211], [8.99164009094244, 47.747985839844034], [8.987848281860806, 47.747436523437614], [8.986088752746753, 47.74634552001953], [8.985424041748331, 47.744556427002124], [8.986260414123592, 47.742515563965014], [8.992195129394815, 47.73966217041033], [9.000802993774471, 47.73768615722685], [9.00563907623308, 47.73393630981468], [9.009295463562353, 47.732280731201456], [9.010104179382324, 47.73016357421875], [9.00108623504633, 47.73042678833008], [8.975004196167106, 47.74050140380882], [8.961296081543253, 47.74199676513672], [8.950469970703068, 47.740631103515625], [8.945801734924714, 47.7391624450683], [8.94181156158453, 47.73573684692377], [8.941365242004451, 47.731822967529524], [8.945017814636572, 47.72838211059576], [8.954223632812955, 47.72549438476574], [8.9734725952149, 47.71670150756836], [8.996725082397745, 47.71026611328119], [9.005008697509993, 47.70449447631836], [9.008350372314396, 47.701221466064624], [9.008568763732967, 47.69820785522478], [9.006369590759277, 47.69509124755882], [8.995391845703182, 47.68629837036144], [8.987738609314022, 47.682647705078125], [8.981316566467342, 47.680759429931754], [8.975971221923828, 47.67552947998058], [8.963224411010913, 47.67274475097673], [8.953620910644588, 47.669273376465014], [8.94187164306635, 47.66196060180664], [8.926250457763729, 47.66164779663109], [8.918622016907136, 47.65863037109392], [8.906375885009766, 47.65710449218767], [8.901502609252987, 47.655189514160156], [8.891834259033544, 47.65522384643583], [8.878918647766113, 47.658683776855696], [8.877449035644531, 47.67139434814453], [8.870393753051701, 47.6791305541995], [8.863297462463493, 47.683799743652344], [8.853852272033691, 47.68376922607439], [8.854491233825627, 47.68746185302757], [8.858363151550748, 47.6919059753418], [8.859040260314998, 47.69447326660156], [8.858410835266568, 47.69620513916033], [8.855859756470181, 47.69869613647472], [8.855856895447118, 47.699882507324446], [8.859832763671989, 47.70213317871094], [8.86807155609148, 47.699462890625], [8.868489265441951, 47.69890213012724], [8.867260932922534, 47.69742584228521], [8.867871284484863, 47.69677352905302], [8.875696182251431, 47.697406768799], [8.87787246704113, 47.69892120361351], [8.878305435181062, 47.70020675659208], [8.877550125122298, 47.701583862304744], [8.873841285705737, 47.703376770019645], [8.874106407165812, 47.7076416015625], [8.869046211242733, 47.708850860595874], [8.856014251708984, 47.708312988281534], [8.848651885986783, 47.70586776733421], [8.84888458251993, 47.71089553833019], [8.848126411438102, 47.71345138549805], [8.846851348876953, 47.71526336669922], [8.844654083252408, 47.71628952026384], [8.836640357971532, 47.71794128417969], [8.828311920166357, 47.71510314941406], [8.823440551757756, 47.71563720703125], [8.822449684143521, 47.717571258545036], [8.82455062866211, 47.7201957702639], [8.824432373046875, 47.72146987915039], [8.820116996765137, 47.7220153808596], [8.815552711486873, 47.727081298828125], [8.808190345764103, 47.729228973388956], [8.808428764343205, 47.7302703857423], [8.81195259094244, 47.73287582397455], [8.812627792358455, 47.73432922363281], [8.809846878051815, 47.736682891845646], [8.809293746948583, 47.74024963378906], [8.808216094971158, 47.74168014526367], [8.805190086364973, 47.74145889282221], [8.799956321716252, 47.73878479003929], [8.799428939819734, 47.73726654052757], [8.800252914429166, 47.731380462646484], [8.793231964111499, 47.733264923095874], [8.789182662963924, 47.732093811035384], [8.785732269287223, 47.730579376220646], [8.781541824341161, 47.72551345825218], [8.772500991821744, 47.721778869628906], [8.771158218383846, 47.71976852416992], [8.771224975585938, 47.71390151977562], [8.77280521392862, 47.71146392822283], [8.781436920166016, 47.709579467773665], [8.79733943939209, 47.70799636840843], [8.79951381683395, 47.705268859863395], [8.800629615783691, 47.701602935791186], [8.808097839355526, 47.69923400878906], [8.808158874511832, 47.697181701660384], [8.80203247070341, 47.69614410400402], [8.797359466553019, 47.69042205810558], [8.795715332031307, 47.683021545410156], [8.79814815521246, 47.67990875244152], [8.792692184448583, 47.679321289062784], [8.786619186401367, 47.68069839477545], [8.773118019104345, 47.68674468994146], [8.76686096191446, 47.690898895263786], [8.756875991821573, 47.694309234619254], [8.738645553589322, 47.69681549072271], [8.727890014648779, 47.696842193603686], [8.730150222778377, 47.70771408081072], [8.73280143737827, 47.71148681640648], [8.737505912781103, 47.721240997314396], [8.73548793792719, 47.723308563232536], [8.728389739990234, 47.7250671386721], [8.725632667541845, 47.72673797607422], [8.719373703002987, 47.727088928222656], [8.713351249695052, 47.73562240600609], [8.715188026428223, 47.74272537231451], [8.724658012390591, 47.749782562255916], [8.727890014648779, 47.75109481811546], [8.740101814270247, 47.75126266479515], [8.742297172546387, 47.75279998779291], [8.742387771606559, 47.754528045654524], [8.741086006164608, 47.75758361816423], [8.731711387634277, 47.7628936767581], [8.730445861816634, 47.766109466552905], [8.724320411682129, 47.76940917968767], [8.714075088501374, 47.770793914795036], [8.705397605895996, 47.768268585205305], [8.700121879577978, 47.765129089355526], [8.697163581848145, 47.76185607910162], [8.69027328491211, 47.76291275024437], [8.688351631164721, 47.770160675049055], [8.685496330261628, 47.77551651000999], [8.688178062438908, 47.77852249145508], [8.688397407532136, 47.780296325683594], [8.683940887451342, 47.78499603271496], [8.683047294616756, 47.79148483276367], [8.680775642395417, 47.792396545410384], [8.67212200164795, 47.79299545288086], [8.669821739197232, 47.79463577270519], [8.66253566741949, 47.79685974121088], [8.660924911499023, 47.79839324951166], [8.661626815796012, 47.802017211914006], [8.658706665039062, 47.80519104003912], [8.65626907348667, 47.805786132812614], [8.651758193969783, 47.80539703369169], [8.649936676025504, 47.80427169799805], [8.646132469177303, 47.79653549194347], [8.646379470825423, 47.79433822631853], [8.649000167847134, 47.79140472412132], [8.64981079101608, 47.78906631469732], [8.64979553222662, 47.77860260009783], [8.646178245544718, 47.774108886719034], [8.648706436157283, 47.77104568481445], [8.64206981658981, 47.771034240722884], [8.637350082397518, 47.767906188964844], [8.632167816162564, 47.765830993652344], [8.629762649536133, 47.7659721374514], [8.621996879577694, 47.7730445861817], [8.621758460998592, 47.77489471435558], [8.623208999633732, 47.77819442749029], [8.623373985290527, 47.78240585327177], [8.622666358947754, 47.78364181518555], [8.620442390442236, 47.784709930420036], [8.616848945617676, 47.789451599121094], [8.617065429687443, 47.79264068603527], [8.619612693786678, 47.794479370117415], [8.62165546417259, 47.797973632812614], [8.621893882751692, 47.800785064697436], [8.619837760925293, 47.80404281616211], [8.614748954773006, 47.80763626098627], [8.609911918640307, 47.809028625488395], [8.599510192871037, 47.808856964111385], [8.593331336975325, 47.80600738525402], [8.586866378784123, 47.80878067016596], [8.581402778625716, 47.80692291259777], [8.577798843383903, 47.80684280395519], [8.575987815857218, 47.80778503417986], [8.57386779785162, 47.81204986572271], [8.56867599487316, 47.814399719238395], [8.565740585327148, 47.81334304809599], [8.562520980834961, 47.810379028320426], [8.562328338623104, 47.79997253417969], [8.563877105712947, 47.798072814941406], [8.57384395599371, 47.79523849487299], [8.576228141784725, 47.78907775878906], [8.56745719909668, 47.785945892334155], [8.555686950683594, 47.79094696044916], [8.551117897033862, 47.79103088378912], [8.524814605713004, 47.78411483764654], [8.521080970764217, 47.77830505371105], [8.51064491271984, 47.78294372558588], [8.506892204284611, 47.781215667724666], [8.50204372406023, 47.78070068359392], [8.496957778930835, 47.778766632080135], [8.48770904541027, 47.779682159423885], [8.47270584106451, 47.77009963989258], [8.469025611877726, 47.76571655273449], [8.466488838195744, 47.760463714599666], [8.459422111511401, 47.757946014404354], [8.45725536346464, 47.75585556030296], [8.45629978179926, 47.75006103515631], [8.452630996704158, 47.74618148803722], [8.452748298645133, 47.7393684387207], [8.457196235656738, 47.73526000976557], [8.454292297363338, 47.72972106933588], [8.444628715515194, 47.72801971435547], [8.442171096801871, 47.72639465332054], [8.440698623657397, 47.72396469116211], [8.43448638916044, 47.723308563232536], [8.423559188843058, 47.7172203063966], [8.417277336120605, 47.716560363769474], [8.405713081359863, 47.706298828125], [8.40561485290533, 47.70342254638672], [8.410385131836165, 47.70126724243164], [8.412643432617188, 47.69919967651373], [8.416281700134505, 47.69272613525385], [8.419635772705305, 47.689395904541016], [8.415066719055176, 47.68673706054693], [8.407922744750977, 47.68508911132807], [8.404691696167106, 47.681583404541016], [8.404480934143066, 47.679393768310604], [8.406331062316951, 47.67712020874035], [8.413011550903263, 47.67203903198242], [8.42437553405756, 47.67121887207048], [8.432193756103516, 47.66768646240246], [8.437244415283487, 47.66276931762701], [8.445543289184627, 47.659385681152344], [8.453894615173397, 47.65943145751959], [8.459089279174748, 47.65847778320318], [8.464703559875545, 47.661731719970646], [8.466688156128043, 47.661552429199446], [8.46756553649925, 47.659202575683764], [8.46587276458763, 47.65330505371094], [8.465996742248649, 47.649414062500114], [8.468180656433276, 47.64534378051758], [8.471726417541618, 47.64346313476574], [8.476554870605469, 47.643531799316406], [8.478680610656852, 47.64454650878912], [8.477872848510799, 47.645931243896484], [8.472819328308333, 47.64715576171875], [8.473211288452319, 47.648368835449276], [8.477309226989973, 47.64957809448242], [8.477212905883846, 47.65071868896496], [8.474399566650447, 47.65259552001959], [8.474248886108455, 47.65361785888666], [8.475107192993221, 47.65443801879894], [8.481384277343807, 47.654212951660156], [8.484661102294922, 47.649162292480526], [8.49193286895752, 47.64747238159197], [8.494954109191895, 47.647804260254134], [8.4961709976198, 47.65109252929699], [8.49873256683378, 47.6521911621096], [8.532531738281364, 47.65064620971708], [8.534522056579817, 47.65154647827154], [8.535897254943848, 47.65444564819347], [8.533381462097282, 47.65762329101557], [8.5318603515625, 47.66188430786144], [8.52883243560791, 47.66470718383795], [8.532726287841797, 47.6667861938476], [8.5343856811524, 47.666774749755916], [8.538285255432243, 47.66391754150385], [8.540073394775504, 47.663707733154354], [8.541254997253418, 47.66474533081066], [8.54151725769043, 47.6687583923341], [8.543308258056754, 47.670162200927734], [8.551589965820597, 47.67335891723627], [8.564076423645076, 47.67495727539074], [8.565720558166788, 47.67163848876959], [8.567441940307788, 47.67029571533209], [8.574595451354924, 47.66790390014654], [8.580332756042651, 47.66767501831055], [8.592844009399698, 47.672428131103516], [8.601484298706112, 47.6770133972168], [8.607149124145792, 47.675994873046875], [8.609953880310172, 47.66939544677746], [8.61386680603033, 47.66666412353521], [8.618817329406795, 47.664680480956974], [8.628497123718319, 47.65755081176758], [8.629472732544059, 47.65478515625], [8.62895870208746, 47.65135192871094], [8.625095367431697, 47.64586257934582], [8.620411872863713, 47.64292907714855], [8.61572360992443, 47.64169311523443], [8.605622291565055, 47.64197158813482], [8.6043252944948, 47.643150329589844], [8.604549407959098, 47.64481735229492], [8.612413406372298, 47.64667510986351], [8.61420154571556, 47.64775848388689], [8.61533355712885, 47.6501846313476], [8.614572525024698, 47.65269088745123], [8.613077163696403, 47.654354095458984], [8.609517097473258, 47.656417846679744], [8.607096672058333, 47.6566619873048], [8.604990005493391, 47.655162811279524], [8.602745056152287, 47.6506614685058], [8.596846580505542, 47.647193908691406], [8.596367835998763, 47.64552688598633], [8.598585128784407, 47.63161468505865], [8.60611820220953, 47.62092208862305], [8.605869293213004, 47.61689376831066], [8.602931976318587, 47.6135368347168], [8.596671104431152, 47.61059951782238], [8.591178894042969, 47.60594558715843], [8.588322639465616, 47.60487747192394], [8.584686279296875, 47.6003112792971], [8.576786041259766, 47.599891662597656], [8.561456680297852, 47.603668212890625], [8.56383132934593, 47.60604476928711], [8.567606925964355, 47.613090515136946], [8.571919441223429, 47.6148300170899], [8.57277584075922, 47.61633300781273], [8.570021629333553, 47.61995315551752], [8.564427375793684, 47.621723175049], [8.559069633483944, 47.62760543823242], [8.540680885315169, 47.63151931762701], [8.53905105590826, 47.6347465515139], [8.53740119934099, 47.63570785522484], [8.527149200439624, 47.63626480102562], [8.520914077758846, 47.63809585571289], [8.518870353698844, 47.6365852355957], [8.513216018676758, 47.62820816040056], [8.508220672607536, 47.62657165527344], [8.506954193115234, 47.622680664062614], [8.505715370178393, 47.62146377563505], [8.494769096374739, 47.61887741088867], [8.48259353637701, 47.618637084961165], [8.478961944580305, 47.61494827270519], [8.47315979003912, 47.61180877685558], [8.470517158508471, 47.608684539795206], [8.460105895996264, 47.6070175170899], [8.45824337005638, 47.60531997680681], [8.458543777465877, 47.6020965576173], [8.46127891540533, 47.5987815856933], [8.46142673492443, 47.59411621093744], [8.4658012390139, 47.591285705566406], [8.46831130981451, 47.58845138549816], [8.48097991943365, 47.58914566040045], [8.48888015747093, 47.59301376342785], [8.492044448852539, 47.59094238281256], [8.495615959167594, 47.585163116455305], [8.491401672363281, 47.58395385742199], [8.488503456115836, 47.581394195556754], [8.477210044860954, 47.58124160766596], [8.467246055603084, 47.5764999389649], [8.456919670104924, 47.576465606689396], [8.437403678894327, 47.57140731811529], [8.42700099945074, 47.57166671752941], [8.423431396484489, 47.57075119018549], [8.421740531921444, 47.57276153564453], [8.398768424987963, 47.58018112182623], [8.39340782165533, 47.57950592041021], [8.390183448791731, 47.57805252075195], [8.386308670043888, 47.57226562500006], [8.384623527526799, 47.57079315185558], [8.382158279418945, 47.57021713256836], [8.355414390563965, 47.57444763183622], [8.32952022552496, 47.574924468994425], [8.324610710144043, 47.57633209228527], [8.315682411194132, 47.58173370361328], [8.310355186462573, 47.58727264404297], [8.301592826843319, 47.590282440185604], [8.296529769897745, 47.59352874755871], [8.294564247131518, 47.597534179687614], [8.2958345413208, 47.61009979248058], [8.294022560119629, 47.612255096435604], [8.2908353805542, 47.613906860351676], [8.279000282287825, 47.61663818359375], [8.261347770690975, 47.6150856018067], [8.260824203491268, 47.616939544677734], [8.26131343841547, 47.61915588378906], [8.256008148193416, 47.620277404785156], [8.246526718139705, 47.61824417114252], [8.238662719726733, 47.61798477172857], [8.235220909118652, 47.616661071777344], [8.23035717010498, 47.611919403076286], [8.225025177002124, 47.611469268799055], [8.223107337951888, 47.61180114746105], [8.22066879272461, 47.62050247192394], [8.216584205627441, 47.62375640869146], [8.214179039001579, 47.625019073486555], [8.20481967926031, 47.626274108886776], [8.196906089782715, 47.62453079223627], [8.19295597076416, 47.62136840820341], [8.187291145324878, 47.614051818847884], [8.182897567748967, 47.60977554321295], [8.175946235656795, 47.608493804931925], [8.16773700714117, 47.60129165649414], [8.165583610534725, 47.60026931762707], [8.15760517120367, 47.59969711303722], [8.151464462280273, 47.60127639770508], [8.14722728729248, 47.60086059570318], [8.141401290893782, 47.59822082519554], [8.138190269470442, 47.595863342285156], [8.137042045593205, 47.591201782226676], [8.134671211242676, 47.58926010131836], [8.111915588378963, 47.5891227722168], [8.107321739196834, 47.58745574951172], [8.101748466491813, 47.580940246582145], [8.100104331970499, 47.568920135498104], [8.098521232604924, 47.565952301025504], [8.087834358215616, 47.56288528442394], [8.081036567688159, 47.56382751464844], [8.075621604919661, 47.566242218017635], [8.072384834289835, 47.56940460205084], [8.068532943725813, 47.570526123046875], [8.058210372924805, 47.56907272338867], [8.056816101074503, 47.56745147705078], [8.045414924621582, 47.560287475585994], [8.020597457885913, 47.55642700195318], [8.0071449279788, 47.55852127075224], [8.00500488281267, 47.561016082763615], [7.999537944793929, 47.56241607666027], [7.992455005646036, 47.5624732971192], [7.978542804718018, 47.56095504760748], [7.970478057861385, 47.561645507812614], [7.958240032195988, 47.56417465209984], [7.955368995666788, 47.563354492187614], [7.952331066131819, 47.56106185913086], [7.948052883148478, 47.550636291503906], [7.944071769714355, 47.549701690673885], [7.937071800231877, 47.550800323486385], [7.933072090148926, 47.55299758911144], [7.919198036194018, 47.55342483520508], [7.911993980407772, 47.556365966796875], [7.908974170684758, 47.55981826782238], [7.906667232513428, 47.56599807739258], [7.906896114349422, 47.568115234375114], [7.910396099090747, 47.57300567626953], [7.909315109252987, 47.57831954956066], [7.902739048004207, 47.58635711669922], [7.894239902496281, 47.59222412109375], [7.890720844268913, 47.59363555908226], [7.88652515411377, 47.59489440917969], [7.874959945678768, 47.5955238342288], [7.862892150878849, 47.59497070312523], [7.858613014221419, 47.59397125244158], [7.848824024200496, 47.589752197265625], [7.840062141418514, 47.58888626098633], [7.835610866546631, 47.589111328125114], [7.834073066711426, 47.59163665771479], [7.830056190491007, 47.59374618530296], [7.820772171020621, 47.59469985961937], [7.817118167877197, 47.59273529052746], [7.813893795013541, 47.58834838867199], [7.812250137329102, 47.58556747436535], [7.810149192810115, 47.57751846313499], [7.808691024780444, 47.575569152832145], [7.799407005310059, 47.570171356201115], [7.793054103851489, 47.56382751464844], [7.783683776855753, 47.56059646606457], [7.770460128784237, 47.559127807617415], [7.757160186767749, 47.555728912353686], [7.753057003021183, 47.55191040039074], [7.719088077545166, 47.54888153076183], [7.713607788085938, 47.546875], [7.707057952881087, 47.54299545288109], [7.697434902191276, 47.539829254150675], [7.695825099945296, 47.53847885131847], [7.695957183837891, 47.53736495971674], [7.686938762664852, 47.53610229492199], [7.66949319839506, 47.53711700439453], [7.660988807678223, 47.54075622558611], [7.656939029693831, 47.54606628417969], [7.654532909393481, 47.547821044921875], [7.642683982849178, 47.55198287963873], [7.637648105621622, 47.5581130981447], [7.632383823394946, 47.5624237060548], [7.635598182678223, 47.56352615356445], [7.643956184387264, 47.5631561279298], [7.6543359756472, 47.56727218627941], [7.667079925537223, 47.567863464355526], [7.673447132110596, 47.572418212890796], [7.674540996551571, 47.572582244873104], [7.677452087402628, 47.570701599121264], [7.679849147796688, 47.57091140747082], [7.681587219238509, 47.57326126098633], [7.681455135345516, 47.57468795776373], [7.67865705490118, 47.57534027099632], [7.676616191864241, 47.577159881591854], [7.671949863433895, 47.583820343017805], [7.672088146209717, 47.58501052856457], [7.665174007415771, 47.586795806884766], [7.66410684585594, 47.58787536621094], [7.665021896362418, 47.58978652954113], [7.670560836792106, 47.59326171875023], [7.656254768371525, 47.5942573547365], [7.650300979614428, 47.59607315063488], [7.639196872711295, 47.59704208374035], [7.63595008850109, 47.59515380859381], [7.634919166564998, 47.59218597412138], [7.630749225616569, 47.59033966064453], [7.618941783905086, 47.58091354370117], [7.607770919799862, 47.58095932006859], [7.607214927673397, 47.588294982910384], [7.602775096893595, 47.58968353271496], [7.602729797363224, 47.59273910522461], [7.596539974212646, 47.59630966186518], [7.591418266296387, 47.596191406250284], [7.593035697937296, 47.60082244873047], [7.574324131012247, 47.61580276489258], [7.567355155944995, 47.631736755371264], [7.524673938751221, 47.66019439697271], [7.520036697387695, 47.66625213623047], [7.51979780197172, 47.68341827392578], [7.512126922607649, 47.696090698242244], [7.513751983642521, 47.702819824218864], [7.534945964813289, 47.71471786499035], [7.543886661529598, 47.72258377075195], [7.54859018325817, 47.735408782958984], [7.539847850799674, 47.75434112548828], [7.53337144851713, 47.766033172607536], [7.530228137969971, 47.783443450927734], [7.545847892761458, 47.81265258789074], [7.562403202057169, 47.84101867675804], [7.563369274139404, 47.85116958618164], [7.555642604828108, 47.87053298950207], [7.557729244232291, 47.88094711303711], [7.577612400054875, 47.89208984375017], [7.582515239715747, 47.89826202392584], [7.580986976623649, 47.920768737793026], [7.582633972168026, 47.92988967895519], [7.6033425331118, 47.94856262207031], [7.62215709686302, 47.973659515380916], [7.608582973480168, 48.00032424926758], [7.578458309173641, 48.024887084961165], [7.568590164184855, 48.03633880615257], [7.573386192321777, 48.059635162353516], [7.56931543350214, 48.08067703247093], [7.575988769531534, 48.093902587890625], [7.579774379730168, 48.106842041015625], [7.577859401702995, 48.121391296386776], [7.598897457123087, 48.13542938232422], [7.599499702453841, 48.15563201904291], [7.613793373108024, 48.1696662902832], [7.629335403442383, 48.183242797851676], [7.641849994659367, 48.20399475097679], [7.666151046753214, 48.221099853515625], [7.680779457092456, 48.25732421875], [7.693936824798527, 48.30212020874046], [7.705078601837101, 48.3096351623538], [7.734117507934627, 48.318229675293026], [7.741621494293327, 48.32321929931646], [7.745231628418139, 48.32982635498064], [7.743503093719653, 48.34033203125], [7.736098766327189, 48.36259460449219], [7.730966091156063, 48.38220596313482], [7.733546733856315, 48.39868545532238], [7.753418445587386, 48.43460845947271], [7.766161918640364, 48.463973999023665], [7.766868114471606, 48.48680114746111], [7.771475315094222, 48.492435455322266], [7.793973922729606, 48.501670837402344], [7.805161952972469, 48.51350021362316], [7.805467605590877, 48.558837890625114], [7.80017709732067, 48.583168029785384], [7.805009365081901, 48.59319305419922], [7.8304638862611, 48.620063781738395], [7.835922718048039, 48.63367462158203], [7.845043659210205, 48.64553070068365], [7.880984306335677, 48.658309936523494], [7.896251678467024, 48.6672096252442], [7.961741924285889, 48.720256805420036], [7.967702388763428, 48.72978591918957], [7.970248699188346, 48.756229400634766], [7.982993602752686, 48.761089324951286], [8.003462791443042, 48.75876998901373], [8.017477035522745, 48.76275253295921], [8.031856536865234, 48.78814697265625], [8.041571617126579, 48.79072952270508], [8.062413215637434, 48.789188385009766], [8.087015151977823, 48.802013397216854], [8.101068496704329, 48.81581497192394], [8.10729885101324, 48.82840728759783], [8.121443748474178, 48.86494064331055], [8.141568183899153, 48.896072387695256], [8.16850566864025, 48.92450332641624], [8.197396278381404, 48.957103729248274], [8.226443290710506, 48.96493148803734], [8.230295181274357, 48.96729660034191], [8.230228424072493, 48.968509674072266], [8.241430282592887, 48.9688415527346], [8.268489837646428, 48.98461914062517], [8.295299530029354, 49.00415039062506], [8.30020904541044, 49.01549911499029], [8.299979209900187, 49.019222259521484], [8.305338859558105, 49.02313995361328], [8.304649353027514, 49.034301757812614], [8.314449310302678, 49.05699920654308], [8.319819450378418, 49.06090927124035], [8.340800285339355, 49.08401107788097], [8.362239837646541, 49.09968948364275], [8.362010002136628, 49.10340881347673], [8.371350288391284, 49.13354110717796], [8.370429039001806, 49.1483917236331], [8.375559806823958, 49.15602874755871], [8.37533187866228, 49.15972900390625], [8.369520187378328, 49.16323852539091], [8.369058609008846, 49.170650482177905], [8.37932014465332, 49.18592071533209], [8.384680747986124, 49.189842224121094], [8.383998870849666, 49.200962066650334], [8.389590263366642, 49.20117950439459], [8.39494991302496, 49.205101013183594], [8.405288696289517, 49.22035217285156], [8.404890060424918, 49.227729797363395], [8.39367866516119, 49.22731018066412], [8.388287544250431, 49.22338867187517], [8.38765907287592, 49.23448181152361], [8.392860412597713, 49.242092132568416], [8.403678894042969, 49.24991226196295], [8.436808586120662, 49.262279510498274], [8.447690010071199, 49.270092010498104], [8.452778816223486, 49.28136062622093], [8.45823955535883, 49.285259246826115], [8.469329833984602, 49.289379119873274], [8.480588912964322, 49.289821624756144], [8.486059188843, 49.29372024536133], [8.485898971557674, 49.29738998413109], [8.491369247436523, 49.30128860473627], [8.485580444335994, 49.30474853515631], [8.485418319702319, 49.308422088623104], [8.473819732666072, 49.315341949463004], [8.456730842590616, 49.318370819092024], [8.450919151306323, 49.32183074951172], [8.450428962707804, 49.33285140991234], [8.461409568786792, 49.3406219482423], [8.472559928893986, 49.34471893310547], [8.49458980560297, 49.36024856567383], [8.499819755554142, 49.37145996093756], [8.499540328979663, 49.378780364990234], [8.504929542541447, 49.386322021484375], [8.498978614807413, 49.393428802490234], [8.49331092834467, 49.393241882324276], [8.487779617309513, 49.38936996459972], [8.482389450073242, 49.38182067871105], [8.47686862945568, 49.37794113159208], [8.465539932250977, 49.37752914428722], [8.464948654175089, 49.39220046997076], [8.470620155334643, 49.39241027832048], [8.476148605346907, 49.39628219604492], [8.492889404296818, 49.4042320251466], [8.498559951782454, 49.404441833496094], [8.498149871826342, 49.41542053222685], [8.503558158874569, 49.42296218872082], [8.508850097656307, 49.43415069580078], [8.508589744568098, 49.44147872924799], [8.496938705444563, 49.44839859008789], [8.45143032074003, 49.44678878784191], [8.445588111877555, 49.450260162353516], [8.445169448852596, 49.46125030517578], [8.450858116150187, 49.461448669433594], [8.450720787048283, 49.465122222900334], [8.456399917602766, 49.46530914306646], [8.467529296874943, 49.473041534424055], [8.455579757690487, 49.487308502197266], [8.443899154663313, 49.49425125122082], [8.44361877441412, 49.501579284668026], [8.424960136413802, 49.541358947753906], [8.418828964233342, 49.55218887329107], [8.418268203735408, 49.56687164306652], [8.423720359802473, 49.57440185546881], [8.429441452026424, 49.57460021972662], [8.429039001464844, 49.58562088012707], [8.446220397949219, 49.58618927001953], [8.446089744568155, 49.5898704528808], [8.469009399414347, 49.590621948242244], [8.486580848694132, 49.58018112182617], [8.486710548401106, 49.576511383056584], [8.498289108276424, 49.573219299316406], [8.504147529602278, 49.5697402954101], [8.527660369873331, 49.5521697998048], [8.533859252929972, 49.5377006530764], [8.557209014892862, 49.52381134033203], [8.591519355774153, 49.52497100830095], [8.5971298217774, 49.52882003784191], [8.597019195556868, 49.5324821472168], [8.602629661560286, 49.536331176757926], [8.60846042633085, 49.53285980224615], [8.608360290527571, 49.53652191162121], [8.613869667053393, 49.544029235839844], [8.619588851928768, 49.544208526611385], [8.619479179382324, 49.54787063598644], [8.625108718872013, 49.55171203613287], [8.619379043579215, 49.55152893066429], [8.619169235229492, 49.55886077880871], [8.613219261169377, 49.56599044799816], [8.612798690796012, 49.58063125610374], [8.606749534607104, 49.591430664062614], [8.606638908386174, 49.595100402832145], [8.600899696350268, 49.594909667968864], [8.595048904418945, 49.598388671875], [8.59484004974371, 49.60572052001959], [8.60046863555931, 49.60956954956055], [8.600359916687182, 49.613231658935774], [8.646108627319393, 49.62200164794916], [8.657608985901106, 49.62234878540039], [8.669018745422647, 49.62636184692383], [8.68616867065441, 49.63053131103527], [8.69777870178217, 49.62720108032238], [8.69787883758545, 49.62353897094749], [8.692219734192122, 49.61972045898432], [8.69239997863798, 49.61240005493164], [8.686650276184082, 49.612232208252124], [8.686750411987362, 49.60857009887695], [8.692498207092513, 49.60874176025396], [8.698160171508732, 49.61256027221674], [8.698250770568904, 49.60890197753906], [8.704078674316406, 49.60541152954124], [8.704190254211426, 49.601749420166016], [8.698619842529467, 49.59426879882835], [8.687130928039835, 49.593952178955135], [8.687508583068848, 49.579311370849666], [8.681758880615519, 49.57913970947283], [8.693440437317008, 49.57217025756836], [8.693719863891658, 49.561199188232536], [8.699639320373649, 49.55406188964855], [8.705380439758528, 49.55422973632818], [8.711210250854606, 49.55075073242193], [8.705559730529899, 49.54693222045927], [8.711479187011662, 49.53979110717779], [8.728948593139762, 49.52933120727545], [8.729120254516602, 49.522029876708984], [8.734857559204102, 49.52219009399414], [8.740508079528809, 49.52600097656256], [8.74043083190935, 49.5296516418457], [8.746161460876408, 49.52981185913086], [8.751999855041504, 49.52630996704113], [8.7577295303347, 49.52647018432623], [8.757818222045898, 49.52281951904291], [8.763549804687443, 49.52297210693371], [8.769379615783919, 49.51947021484381], [8.775039672851562, 49.52326965332031], [8.780790328979549, 49.52341079711937], [8.78661060333252, 49.5199089050293], [8.79235935211176, 49.52005004882818], [8.7981796264649, 49.516551971435604], [8.798109054565657, 49.52019119262707], [8.803778648376635, 49.52397918701172], [8.803710937500057, 49.52762222290045], [8.80945873260498, 49.52775955200201], [8.815138816833553, 49.5315399169923], [8.826650619507006, 49.53179931640625], [8.826729774475268, 49.528148651123104], [8.820968627929858, 49.52801895141613], [8.821329116821573, 49.50979995727539], [8.83306026458746, 49.49911880493164], [8.838809967041186, 49.499240875244254], [8.838670730590877, 49.50653076171898], [8.861720085144043, 49.50698852539057], [8.867420196533374, 49.510749816894645], [8.890519142150936, 49.51116180419933], [8.896368980407772, 49.507591247558594], [8.90207862854021, 49.5113410949707], [8.902488708496321, 49.489448547363224], [8.890988349914608, 49.48563003540062], [8.891058921814022, 49.4819793701173], [8.879650115966797, 49.4744987487793], [8.868169784546183, 49.47064971923834], [8.862339973449707, 49.474189758300724], [8.868048667907658, 49.47793960571289], [8.867968559265307, 49.48159027099621], [8.862079620361499, 49.48876953125006], [8.856300354003906, 49.488658905029354], [8.850608825683821, 49.484901428222656], [8.827729225158919, 49.47713088989269], [8.827938079834155, 49.466209411621094], [8.833759307861385, 49.4626922607423], [8.83411884307884, 49.444488525390625], [8.83992004394554, 49.44095993041992], [8.834239959716967, 49.43721008300781], [8.834379196167049, 49.42993164062494], [8.817149162292537, 49.4295387268067], [8.805750846862907, 49.425640106201115], [8.805818557739485, 49.42200851440441], [8.811629295349121, 49.41849899292015], [8.800168991088867, 49.41823196411133], [8.805970191955566, 49.4147300720216], [8.806039810180721, 49.41109085083019], [8.817639350891056, 49.404090881347884], [8.823370933532999, 49.40422058105469], [8.829048156738509, 49.40798187255888], [8.828908920288029, 49.41524887084984], [8.840400695800724, 49.415489196777514], [8.840531349182186, 49.408222198486385], [8.846348762512264, 49.40468978881836], [8.85784053802496, 49.404911041259766], [8.863550186157397, 49.40864944458036], [8.874889373779297, 49.4197616577149], [8.886359214782658, 49.423591613769645], [8.89778041839611, 49.431030273437614], [8.903229713439941, 49.4493293762207], [8.903169631958292, 49.45298004150402], [8.909019470215128, 49.44940948486328], [8.909089088439885, 49.445758819580135], [8.926469802856388, 49.44596862792969], [8.926328659057901, 49.453269958496094], [8.932048797607365, 49.45698165893555], [8.943630218505916, 49.45711135864252], [8.949358940124625, 49.46081924438482], [8.955150604248217, 49.46086883544922], [8.943358421325797, 49.47172164917015], [8.937568664551009, 49.47164916992199], [8.937359809875545, 49.48260879516607], [8.943079948425407, 49.486331939697266], [8.943020820617676, 49.48997116088884], [8.948739051818961, 49.49370193481457], [8.954589843750057, 49.49010848999018], [8.954460144042912, 49.49742126464855], [8.960178375244368, 49.501140594482536], [8.96010971069353, 49.504798889160384], [8.95425033569336, 49.50838851928722], [8.954179763793945, 49.51205062866205], [8.960039138793888, 49.50846099853527], [8.983187675476074, 49.50870132446295], [8.983049392700252, 49.516021728515625], [8.988828659057845, 49.51607894897461], [8.994688987731877, 49.51247024536133], [8.994759559631518, 49.50881195068382], [9.017900466918945, 49.50899887084955], [9.017968177795694, 49.50532913208019], [9.04689025878912, 49.50551223754894], [9.046749114990234, 49.51285171508789], [9.052519798278809, 49.51288223266607], [9.05823993682884, 49.51657867431658], [9.058170318603516, 49.52027130126959], [9.052390098571834, 49.520229339599894], [9.058098793029785, 49.523929595947266], [9.058028221130542, 49.527599334717024], [9.063808441162394, 49.527629852295036], [9.069518089294434, 49.53134155273443], [9.069439888000659, 49.53501129150419], [9.07522010803234, 49.53503036499046], [9.075300216675089, 49.531360626220874], [9.086930274963379, 49.52772903442383], [9.09263038635271, 49.53142166137718], [9.104189872741756, 49.53145217895519], [9.11017990112316, 49.52040100097656], [9.110339164734, 49.51303863525402], [9.133290290832633, 49.52040100097656], [9.133218765258903, 49.52408981323242], [9.1215181350708, 49.531471252441406], [9.121370315552042, 49.53884124755854], [9.11559867858881, 49.538829803466854], [9.109760284423885, 49.542510986328125], [9.092338562011832, 49.54613876342785], [9.09220027923584, 49.55348968505871], [9.10375022888195, 49.55353164672874], [9.103679656982706, 49.55720901489269], [9.097900390624943, 49.55718994140625], [9.109319686889819, 49.564590454101506], [9.10894870758085, 49.583000183105696], [9.114720344543514, 49.58303070068365], [9.126408576965446, 49.57569122314453], [9.15511989593523, 49.58309936523432], [9.16664981842041, 49.58309173583979], [9.172489166259822, 49.579391479492415], [9.189789772033748, 49.57934188842785], [9.201388359069824, 49.57559204101568], [9.212849617004338, 49.579231262207145], [9.235880851745549, 49.57915115356457], [9.241559982300032, 49.582820892333984], [9.247320175170955, 49.58280181884771], [9.25299930572504, 49.5864715576173], [9.258749961853255, 49.58644866943382], [9.258669853210506, 49.59014892578119], [9.252910614013672, 49.590171813964844], [9.258589744567928, 49.59384918212896], [9.270099639892578, 49.59381103515625], [9.270019531250227, 49.597511291504134], [9.275589942932356, 49.604881286621094], [9.275520324707031, 49.60858154296881], [9.292598724365234, 49.61592102050781], [9.286760330200309, 49.6196403503418], [9.286678314208984, 49.62334060668968], [9.280850410461483, 49.627059936523665], [9.286510467529297, 49.630741119384766], [9.280678749084643, 49.63446044921875], [9.28634071350126, 49.63814163208008], [9.292089462280273, 49.63811874389643], [9.297919273376749, 49.634410858154524], [9.297658920288143, 49.64551162719738], [9.309139251708928, 49.64546966552729], [9.309059143066577, 49.64916992187506], [9.314800262451229, 49.64915847778332], [9.314629554748706, 49.65655899047857], [9.326259613037394, 49.649120330810604], [9.34930896759056, 49.645370483398665], [9.355038642883358, 49.645359039306754], [9.371958732605208, 49.65642929077143], [9.395260810852278, 49.6415710449221], [9.40089035034174, 49.64525985717779], [9.418059349060115, 49.64522933959978], [9.417959213256836, 49.64894104003906], [9.429189682007006, 49.65634155273432], [9.4175386428833, 49.663768768310604], [9.406000137329272, 49.66749191284174], [9.405897140502873, 49.67119979858404], [9.411618232727221, 49.67119216918951], [9.411520004272518, 49.674888610840014], [9.417228698730469, 49.674888610840014], [9.417119979858512, 49.6786003112793], [9.422739982605265, 49.68230056762701], [9.428239822387752, 49.689708709716854], [9.433828353882063, 49.69342041015631], [9.428030014038256, 49.69713211059576], [9.427619934082088, 49.711959838867244], [9.415999412536735, 49.71937179565424], [9.410299301147631, 49.71937179565424], [9.410099983215332, 49.726779937744254], [9.398599624633789, 49.73049163818371], [9.39308929443365, 49.72307968139654], [9.39357852935808, 49.70455932617199], [9.38786983490013, 49.70455932617199], [9.37654018402094, 49.70087051391596], [9.365010261535929, 49.70458221435558], [9.364728927612305, 49.71569061279297], [9.353300094604492, 49.71570205688488], [9.353199005126896, 49.71940994262695], [9.358928680419865, 49.71939849853521], [9.37596988678007, 49.723091125488224], [9.381579399109, 49.726791381835994], [9.387288093566951, 49.726791381835994], [9.375769615173283, 49.73049926757824], [9.358649253845215, 49.73051071166998], [9.352850914001749, 49.73421096801769], [9.341429710388297, 49.73421859741222], [9.341509819030875, 49.73052978515619], [9.330080032348576, 49.730541229248274], [9.329989433288802, 49.73424148559582], [9.324278831481877, 49.73424148559582], [9.307028770446834, 49.7379608154298], [9.306948661804256, 49.741661071777344], [9.312668800354118, 49.741661071777344], [9.324188232422102, 49.73794174194336], [9.329819679260538, 49.74164199829113], [9.335540771484489, 49.74163055419922], [9.335370063781966, 49.749031066894474], [9.323768615722656, 49.75645065307623], [9.323519706726131, 49.76753997802729], [9.363459587097282, 49.76752090454107], [9.380258560180835, 49.77864074707031], [9.385948181152344, 49.77864074707031], [9.386048316955623, 49.77494049072277], [9.397628784179915, 49.76753997802729], [9.403310775757063, 49.76753997802729], [9.431159019470215, 49.78612899780268], [9.44816017150896, 49.78617095947277], [9.448268890381087, 49.78245925903332], [9.454290390014933, 49.77133941650402], [9.465738296508789, 49.7676620483399], [9.471400260925407, 49.76766967773449], [9.4769287109375, 49.77140045166033], [9.482339859008789, 49.778850555420036], [9.487859725952433, 49.78258132934576], [9.487730026245288, 49.786300659179744], [9.5102796554566, 49.78639984130888], [9.521809577942008, 49.779022216796875], [9.52194881439209, 49.77529907226574], [9.516448974609602, 49.77154922485374], [9.516719818115234, 49.764110565185774], [9.528260231018066, 49.756740570068644], [9.53388881683344, 49.75675201416021], [9.533770561218375, 49.7604713439942], [9.54486083984375, 49.76425933837902], [9.550478935241927, 49.764289855956974], [9.561988830566577, 49.75691223144531], [9.562569618225268, 49.74201965332031], [9.573779106140194, 49.74209976196289], [9.57923889160162, 49.74586105346691], [9.57348918914812, 49.74954223632818], [9.567600250244311, 49.756950378418196], [9.566849708557186, 49.77558135986328], [9.57227897644043, 49.77935028076183], [9.583439826965275, 49.77944183349615], [9.583599090576115, 49.77571868896513], [9.600310325622559, 49.77587127685558], [9.61685943603527, 49.77975845336937], [9.627999305725268, 49.77986145019537], [9.633419036865405, 49.78364181518566], [9.638989448547363, 49.783691406250114], [9.655658721924112, 49.78755950927729], [9.656148910522631, 49.77637100219738], [9.650460243225211, 49.7763404846192]]], [[[8.708373069763297, 47.71555709838867], [8.712482452392862, 47.70676803588867], [8.714071273803825, 47.70119094848661], [8.72245121002237, 47.69652938842779], [8.718537330627555, 47.69483947753923], [8.712933540344181, 47.694126129150504], [8.70395755767845, 47.69588088989275], [8.696612358093716, 47.69921875000017], [8.69212532043457, 47.699337005615234], [8.682318687438965, 47.69281387329096], [8.674330711365144, 47.69020462036133], [8.664074897766227, 47.69079208374046], [8.66483020782482, 47.692943572998104], [8.661308288574162, 47.695213317871264], [8.662475585937841, 47.69704437255865], [8.66910171508789, 47.697372436523665], [8.671194076538427, 47.6981964111331], [8.675668716430607, 47.701934814453125], [8.676538467407283, 47.70360565185564], [8.676051139831657, 47.707237243652514], [8.674441337585677, 47.70952224731468], [8.66675090789812, 47.71300125122082], [8.666315078735295, 47.715843200683594], [8.667249679565828, 47.71702957153332], [8.672418594360295, 47.716930389404524], [8.679441452026367, 47.718078613281364], [8.680818557739201, 47.7175369262697], [8.682980537414494, 47.714881896972656], [8.687166213989258, 47.71364212036133], [8.69010925292963, 47.714767456054915], [8.692955017089957, 47.717723846435774], [8.702700614929256, 47.720260620117415], [8.705261230469148, 47.719154357910384], [8.708373069763297, 47.71555709838867]]]]}}]}